NORAD_CAT_ID,OBJECT_NAME,OBJECT_TYPE,EPOCH,MEAN_MOTION,ECCENTRICITY,INCLINATION,RA_OF_ASC_NODE,ARG_OF_PERICENTER,MEAN_ANOMALY,BSTAR,MEAN_MOTION_DOT,MEAN_MOTION_DDOT,TLE_LINE0,TLE_LINE1,TLE_LINE2,SEMIMAJOR_AXIS,PERIOD,APOGEE,PERIGEE,DECAYED
52497.0,STARLINK-3884,PAYLOAD,2022-07-20 22:00:01,15.53376116,0.0001506999999999,53.2176,253.294,37.3281,280.1832,-0.018174,-0.01062132,0.0,0 STARLINK-3884,1 52497U 22049AY  22201.91668981 -.01062132  00000-0 -18174-1 0  9998,2 52497  53.2176 253.2940 0001507  37.3281 280.1832 15.53376116  1301,6785.014,92.701,407.902,405.857,0.0
52497.0,STARLINK-3884,PAYLOAD,2022-07-21 14:00:01,15.51852495,0.0001501,53.2174,250.1027,42.1342,43.7466,-0.019041,-0.01053661,0.0,0 STARLINK-3884,1 52497U 22049AY  22202.58335648 -.01053661  00000-0 -19041-1 0  9994,2 52497  53.2174 250.1027 0001501  42.1342  43.7466 15.51852495  1300,6789.454000000002,92.792,412.339,410.3,0.0
52497.0,STARLINK-3884,PAYLOAD,2022-07-21 22:00:00,15.51086698,0.0001517,53.2175,248.5066,40.5798,108.0547,-0.019312,-0.01040816,0.0,0 STARLINK-3884,1 52497U 22049AY  22202.91667824 -.01040816  00000-0 -19312-1 0  9994,2 52497  53.2175 248.5066 0001517  40.5798 108.0547 15.51086698 12209,6791.689,92.838,414.584,412.524,0.0
52497.0,STARLINK-3884,PAYLOAD,2022-07-22 06:00:00,15.50237252,0.0001459,53.2175,246.9136,41.642,168.9024,-0.008294,-0.00450697,0.0,0 STARLINK-3884,1 52497U 22049AY  22203.25001157 -.00450697  00000-0 -82940-2 0  9992,2 52497  53.2175 246.9136 0001459  41.6420 168.9024 15.50237252  1305,6794.17,92.889,417.026,415.044,0.0
52497.0,STARLINK-3884,PAYLOAD,2022-07-22 12:00:00,15.49884513,0.0001658,53.2175,245.7201,36.7958,129.6588,1.3518e-05,3.16e-06,0.0,0 STARLINK-3884,1 52497U 22049AY  22203.50001157  .00000316  00000-0  13518-4 0  9994,2 52497  53.2175 245.7201 0001658  36.7958 129.6588 15.49884513 12292,6795.201,92.91,418.192,415.939,0.0
52497.0,STARLINK-3884,PAYLOAD,2022-07-22 22:00:00,15.49884016,0.0001364,53.2174,243.7268,53.5422,279.0563,4.199e-05,1.932e-05,0.0,0 STARLINK-3884,1 52497U 22049AY  22203.91667824  .00001932  00000-0  41990-4 0  9998,2 52497  53.2174 243.7268 0001364  53.5422 279.0563 15.49884016  1300,6795.2019999999975,92.91,417.994,416.14,0.0
52497.0,STARLINK-3884,PAYLOAD,2022-07-23 08:00:01,15.49913219,0.0001786,53.2148,241.7271,44.9519,93.864,-0.00025387,-0.00014848,0.0,0 STARLINK-3884,1 52497U 22049AY  22204.33334491 -.00014848  00000-0 -25387-3 0  9999,2 52497  53.2148 241.7271 0001786  44.9519  93.8640 15.49913219 12423,6795.1169999999975,92.908,418.195,415.768,0.0
52497.0,STARLINK-3884,PAYLOAD,2022-07-23 14:00:01,15.49891235,0.0001855999999999,53.2153,240.5326,38.8527,55.7075,0.00012284,6.527e-05,0.0,0 STARLINK-3884,1 52497U 22049AY  22204.58335648  .00006527  00000-0  12284-3 0  9996,2 52497  53.2153 240.5326 0001856  38.8527  55.7075 15.49891235  1303,6795.181,92.91,418.307,415.785,0.0
52497.0,STARLINK-3884,PAYLOAD,2022-07-23 22:00:00,15.49858427,0.0001564,53.2165,238.9409,40.6774,114.7657,-0.00030125,-0.00017495,0.0,0 STARLINK-3884,1 52497U 22049AY  22204.91667824 -.00017495  00000-0 -30125-3 0  9999,2 52497  53.2165 238.9409 0001564  40.6774 114.7657 15.49858427 12513,6795.276999999999,92.912,418.205,416.079,0.0
52497.0,STARLINK-3884,PAYLOAD,2022-07-24 14:00:01,15.49959198,0.0001742,53.2168,235.7615,40.9376,236.2418,-0.008907,-0.00477621,0.0,0 STARLINK-3884,1 52497U 22049AY  22205.58334491 -.00477621  00000-0 -89070-2 0  9997,2 52497  53.2168 235.7615 0001742  40.9376 236.2418 15.49959198 12612,6794.982,92.906,418.031,415.664,0.0
52497.0,STARLINK-3884,PAYLOAD,2022-07-24 22:00:00,15.49708251,0.0001665999999999,53.2175,234.1722,35.7566,302.2188,-0.020758,-0.01062784,0.0,0 STARLINK-3884,1 52497U 22049AY  22205.91667824 -.01062784  00000-0 -20758-1 0  9991,2 52497  53.2175 234.1722 0001666  35.7566 302.2188 15.49708251  1304,6795.715999999999,92.921,418.713,416.449,0.0
52497.0,STARLINK-3884,PAYLOAD,2022-07-25 14:00:01,15.48185484,0.0001588,53.2172,230.9987,40.2364,57.2891,-0.021771,-0.01056752,0.0,0 STARLINK-3884,1 52497U 22049AY  22206.58334491 -.01056752  00000-0 -21771-1 0  9990,2 52497  53.2172 230.9987 0001588  40.2364  57.2891 15.48185484  1302,6800.170999999999,93.012,423.116,420.956,0.0
52497.0,STARLINK-3884,PAYLOAD,2022-07-25 22:00:00,15.47424964,0.0001567,53.2173,229.4119,45.3813,110.5515,-0.022337,-0.01055762,0.0,0 STARLINK-3884,1 52497U 22049AY  22206.91667824 -.01055762  00000-0 -22337-1 0  9995,2 52497  53.2173 229.4119 0001567  45.3813 110.5515 15.47424964 12828,6802.399,93.058,425.33,423.198,0.0
52497.0,STARLINK-3884,PAYLOAD,2022-07-26 14:00:01,15.45908325,0.000144,53.2171,226.2491,48.948,221.056,-0.023613,-0.01058379,0.0,0 STARLINK-3884,1 52497U 22049AY  22207.58334491 -.01058379  00000-0 -23613-1 0  9995,2 52497  53.2171 226.2491 0001440  48.9480 221.0560 15.45908325  1308,6806.847,93.149,429.693,427.732,0.0
52497.0,STARLINK-3884,PAYLOAD,2022-07-26 22:00:00,15.45145504,0.000144,53.2174,224.6677,41.4,284.2744,-0.0241289999999999,-0.01053848,0.0,0 STARLINK-3884,1 52497U 22049AY  22207.91667824 -.01053848  00000-0 -24129-1 0  9990,2 52497  53.2174 224.6677 0001440  41.4000 284.2744 15.45145504  1302,6809.0880000000025,93.195,431.9330000000001,429.972,0.0
52497.0,STARLINK-3884,PAYLOAD,2022-07-27 14:00:01,15.43628476,0.0001439,53.2172,221.5158,45.1934,29.0764,-0.0254639999999999,-0.01055657,0.0,0 STARLINK-3884,1 52497U 22049AY  22208.58334491 -.01055657  00000-0 -25464-1 0  9998,2 52497  53.2172 221.5158 0001439  45.1934  29.0764 15.43628476  1304,6813.5480000000025,93.287,436.393,434.4330000000001,0.0
52497.0,STARLINK-3884,PAYLOAD,2022-07-27 16:00:00,15.4343905,0.0001508,53.2174,221.1215,52.3433,125.245,-0.025671,-0.01057254,0.0,0 STARLINK-3884,1 52497U 22049AY  22208.66667824 -.01057254  00000-0 -25671-1 0  9991,2 52497  53.2174 221.1215 0001508  52.3433 125.2450 15.43439050 13095,6814.105,93.298,436.99800000000016,434.943,0.0
52497.0,STARLINK-3884,PAYLOAD,2022-07-27 22:00:00,15.42868633,0.0001686999999999,53.2174,219.9398,39.5147,87.6864,-0.026151,-0.01071281,0.0,0 STARLINK-3884,1 52497U 22049AY  22208.91667824 -.01071281  00000-0 -26151-1 0  9999,2 52497  53.2174 219.9398 0001687  39.5147  87.6864 15.42868633  1302,6815.785,93.333,438.8,436.5,0.0
52497.0,STARLINK-3884,PAYLOAD,2022-07-28 14:00:01,15.41351361,0.0001544,53.2172,216.7987,49.5123,180.8085,-0.027576,-0.01073178,0.0,0 STARLINK-3884,1 52497U 22049AY  22209.58334491 -.01073178  00000-0 -27576-1 0  9993,2 52497  53.2172 216.7987 0001544  49.5123 180.8085 15.41351361  1301,6820.257,93.425,443.175,441.069,0.0
52497.0,STARLINK-3884,PAYLOAD,2022-07-28 22:00:00,15.40588458,0.0001388,53.2174,215.2282,53.8141,226.7007,-0.0281339999999999,-0.01067762,0.0,0 STARLINK-3884,1 52497U 22049AY  22209.91667824 -.01067762  00000-0 -28134-1 0  9992,2 52497  53.2174 215.2282 0001388  53.8141 226.7007 15.40588458  1301,6822.5080000000025,93.471,445.32,443.426,0.0
52497.0,STARLINK-3884,PAYLOAD,2022-07-29 00:00:00,15.40398561,0.0001382,53.2176,214.8365,47.6008,335.319,-0.028292,-0.01067048,0.0,0 STARLINK-3884,1 52497U 22049AY  22210.00001157 -.01067048  00000-0 -28292-1 0  9997,2 52497  53.2176 214.8365 0001382  47.6008 335.3190 15.40398561 13304,6823.069,93.482,445.877,443.991,0.0
52497.0,STARLINK-3884,PAYLOAD,2022-07-29 14:00:01,15.39072217,0.0001501999999999,53.2172,212.0979,39.8753,338.2828,-0.0296899999999999,-0.01071281,0.0,0 STARLINK-3884,1 52497U 22049AY  22210.58334491 -.01071281  00000-0 -29690-1 0  9997,2 52497  53.2172 212.0979 0001502  39.8753 338.2828 15.39072217  1307,6826.989000000001,93.563,449.879,447.828,0.0
52497.0,STARLINK-3884,PAYLOAD,2022-07-29 22:00:00,15.3830989,0.0001598,53.2174,210.5329,38.9392,26.6751,-0.030337,-0.01067829,0.0,0 STARLINK-3884,1 52497U 22049AY  22210.91667824 -.01067829  00000-0 -30337-1 0  9996,2 52497  53.2174 210.5329 0001598  38.9392  26.6751 15.38309890 13445,6829.244000000002,93.609,452.2,450.018,0.0
52497.0,STARLINK-3884,PAYLOAD,2022-07-30 14:00:01,15.36792179,0.0001685,53.2172,207.4132,44.50899999999999,113.2732,-0.031902,-0.01068565,0.0,0 STARLINK-3884,1 52497U 22049AY  22211.58334491 -.01068565  00000-0 -31902-1 0  9998,2 52497  53.2172 207.4132 0001685  44.5090 113.2732 15.36792179  1303,6833.739000000001,93.702,456.756,454.453,0.0
52497.0,STARLINK-3884,PAYLOAD,2022-07-30 22:00:00,15.36032939,0.0001857,53.2173,205.8539,38.2022,164.2964,-0.032734,-0.01069717,0.0,0 STARLINK-3884,1 52497U 22049AY  22211.91667824 -.01069717  00000-0 -32734-1 0  9998,2 52497  53.2173 205.8539 0001857  38.2022 164.2964 15.36032939 13591,6835.991,93.748,459.126,456.587,0.0
52497.0,STARLINK-3884,PAYLOAD,2022-07-31 14:00:01,15.34515287,0.0001484,53.2172,202.745,48.1069,241.0841,-0.034437,-0.01071483,0.0,0 STARLINK-3884,1 52497U 22049AY  22212.58334491 -.01071483  00000-0 -34437-1 0  9998,2 52497  53.2172 202.7450 0001484  48.1069 241.0841 15.34515287  1309,6840.498000000001,93.841,463.378,461.347,0.0
52497.0,STARLINK-3884,PAYLOAD,2022-07-31 22:00:00,15.33751948,0.0001475,53.2174,201.1911,45.2001,285.9707,-0.035058,-0.01065088,0.0,0 STARLINK-3884,1 52497U 22049AY  22212.91667824 -.01065088  00000-0 -35058-1 0  9998,2 52497  53.2174 201.1911 0001475  45.2001 285.9707 15.33751948 13755,6842.767,93.887,465.641,463.62300000000016,0.0
52497.0,STARLINK-3884,PAYLOAD,2022-08-01 14:00:01,15.32235113,0.0001674,53.2173,198.0929,36.4432,15.9436,-0.0369,-0.01068176,0.0,0 STARLINK-3884,1 52497U 22049AY  22213.58334491 -.01068176  00000-0 -36900-1 0  9991,2 52497  53.2173 198.0929 0001674  36.4432  15.9436 15.32235113  1306,6847.281999999997,93.98,470.294,468.001,0.0
52497.0,STARLINK-3884,PAYLOAD,2022-08-01 22:00:00,15.31474214,0.0001885999999999,53.2174,196.5443,33.7815,57.8463,-0.037702,-0.01065816,0.0,0 STARLINK-3884,1 52497U 22049AY  22213.91667824 -.01065816  00000-0 -37702-1 0  9996,2 52497  53.2174 196.5443 0001886  33.7815  57.8463 15.31474214  1302,6849.55,94.027,472.707,470.12300000000016,0.0
